[{"OBJECT_NAME":"MALLIGYONG-1","OBJECT_ID":"2023-179A","EPOCH":"2026-03-09T23:34:09.992640","MEAN_MOTION":15.22003697,"ECCENTRICITY":0.00093214,"INCLINATION":97.316,"RA_OF_ASC_NODE":313.2885,"ARG_OF_PERICENTER":28.0346,"MEAN_ANOMALY":332.1391,"EPHEMERIS_TYPE":0,"CLASSIFICATION_TYPE":"U","NORAD_CAT_ID":58400,"ELEMENT_SET_NO":999,"REV_AT_EPOCH":12766,"BSTAR":0.00019369443,"MEAN_MOTION_DOT":4.359e-5,"MEAN_MOTION_DDOT":0},{"OBJECT_NAME":"ROADS 2","OBJECT_ID":"2025-135X","EPOCH":"2026-03-09T20:33:50.973408","MEAN_MOTION":15.22472145,"ECCENTRICITY":0.0002782,"INCLINATION":97.4653,"RA_OF_ASC_NODE":185.5116,"ARG_OF_PERICENTER":96.6927,"MEAN_ANOMALY":263.4626,"EPHEMERIS_TYPE":0,"CLASSIFICATION_TYPE":"U","NORAD_CAT_ID":64549,"ELEMENT_SET_NO":999,"REV_AT_EPOCH":3979,"BSTAR":0.00041430645,"MEAN_MOTION_DOT":9.527e-5,"MEAN_MOTION_DDOT":0}]
